{
    "links": {
        "self": "http://www.neowsapp.com/rest/v1/neo/54054318?api_key=iIulBulltgU6a56xZRHN4H3l9WmuAYTsLGpBGhQ2"
    },
    "id": "54054318",
    "neo_reference_id": "54054318",
    "name": "(2020 RM6)",
    "designation": "2020 RM6",
    "nasa_jpl_url": "http://ssd.jpl.nasa.gov/sbdb.cgi?sstr=54054318",
    "absolute_magnitude_h": 24.873,
    "estimated_diameter": {
        "kilometers": {
            "estimated_diameter_min": 0.0281809076,
            "estimated_diameter_max": 0.0630144252
        },
        "meters": {
            "estimated_diameter_min": 28.180907641,
            "estimated_diameter_max": 63.014425153
        },
        "miles": {
            "estimated_diameter_min": 0.0175107988,
            "estimated_diameter_max": 0.0391553364
        },
        "feet": {
            "estimated_diameter_min": 92.457049025,
            "estimated_diameter_max": 206.740246619
        }
    },
    "is_potentially_hazardous_asteroid": false,
    "close_approach_data": [
        {
            "close_approach_date": "2005-11-05",
            "close_approach_date_full": "2005-Nov-05 22:45",
            "epoch_date_close_approach": 1131230700000,
            "relative_velocity": {
                "kilometers_per_second": "3.6376183015",
                "kilometers_per_hour": "13095.4258854769",
                "miles_per_hour": "8136.9883786732"
            },
            "miss_distance": {
                "astronomical": "1.20461714",
                "lunar": "468.59606746",
                "kilometers": "180208158.3094918",
                "miles": "111976157.17011484"
            },
            "orbiting_body": "Juptr"
        },
        {
            "close_approach_date": "2020-10-15",
            "close_approach_date_full": "2020-Oct-15 05:10",
            "epoch_date_close_approach": 1602738600000,
            "relative_velocity": {
                "kilometers_per_second": "7.7033302854",
                "kilometers_per_hour": "27731.9890273008",
                "miles_per_hour": "17231.5795153248"
            },
            "miss_distance": {
                "astronomical": "0.0332491503",
                "lunar": "12.9339194667",
                "kilometers": "4974002.064189861",
                "miles": "3090701.5649516418"
            },
            "orbiting_body": "Earth"
        }
    ],
    "orbital_data": {
        "orbit_id": "11",
        "orbit_determination_date": "2020-10-26 06:51:18",
        "first_observation_date": "2020-09-10",
        "last_observation_date": "2020-10-23",
        "data_arc_in_days": 43,
        "observations_used": 60,
        "orbit_uncertainty": "6",
        "minimum_orbit_intersection": ".0317018",
        "jupiter_tisserand_invariant": "3.098",
        "epoch_osculation": "2459000.5",
        "eccentricity": ".6108770349072241",
        "semi_major_axis": "2.63791662385188",
        "inclination": "3.329143999325604",
        "ascending_node_longitude": "30.36057753648392",
        "orbital_period": "1564.912371894539",
        "perihelion_distance": "1.026473938340768",
        "perihelion_argument": "357.9877516234799",
        "aphelion_distance": "4.249359309362992",
        "perihelion_time": "2459142.629610076028",
        "mean_anomaly": "327.3038180627162",
        "mean_motion": ".2300448296438292",
        "equinox": "J2000",
        "orbit_class": {
            "orbit_class_type": "AMO",
            "orbit_class_description": "Near-Earth asteroid orbits similar to that of 1221 Amor",
            "orbit_class_range": "1.017 AU < q (perihelion) < 1.3 AU"
        }
    },
    "is_sentry_object": false
}